{"type": "FeatureCollection", "features": [ {"type": "Feature", "properties": {"norad_id": 66645, "name": "SHENZHOU-22", "group": "last-30-days", "lat": -8.030856845454482, "lon": 132.722959381737, "alt_km": 386.13450222822394, "timestamp": "2025-12-24T18:55:54.774883+00:00", "meta": {"OBJECT_NAME": "SHENZHOU-22", "OBJECT_ID": "2025-272A", "EPOCH": "2025-12-24T05:49:05.894976", "MEAN_MOTION": 15.59630763, "ECCENTRICITY": 0.00081096, "INCLINATION": 41.4687, "RA_OF_ASC_NODE": 306.8504, "ARG_OF_PERICENTER": 132.6319, "MEAN_ANOMALY": 227.5205, "EPHEMERIS_TYPE": 0, "CLASSIFICATION_TYPE": "U", "NORAD_CAT_ID": 66645, "ELEMENT_SET_NO": 999, "REV_AT_EPOCH": 26550, "BSTAR": 0.00022952509, "MEAN_MOTION_DOT": 0.00018555, "MEAN_MOTION_DDOT": 0}, "tle": {"line1": "1 66645U 25272A   25358.24242934  .00018555  00000+0  22953-3 0  9995", "line2": "2 66645  41.4687 306.8504 0008109 132.6319 227.5205 15.59630763265504"}}, "geometry": {"type": "Point", "coordinates": [132.722959381737, -8.030856845454482]}}, {"type": "Feature", "properties": {"norad_id": 66647, "name": "COSMOS 2597 (RODNIK-S 22)", "group": "last-30-days", "lat": -45.00314977639931, "lon": -88.60298594498877, "alt_km": 1501.6401506249422, "timestamp": "2025-12-24T18:55:54.774894+00:00", "meta": {"OBJECT_NAME": "COSMOS 2597 (RODNIK-S 22)", "OBJECT_ID": "2025-273A", "EPOCH": "2025-12-24T05:38:33.500544", "MEAN_MOTION": 12.41952208, "ECCENTRICITY": 0.00075993, "INCLINATION": 82.4994, "RA_OF_ASC_NODE": 279.3113, "ARG_OF_PERICENTER": 259.1144, "MEAN_ANOMALY": 100.908, "EPHEMERIS_TYPE": 0, "CLASSIFICATION_TYPE": "U", "NORAD_CAT_ID": 66647, "ELEMENT_SET_NO": 999, "REV_AT_EPOCH": 356, "BSTAR": 0.00024007433, "MEAN_MOTION_DOT": 4.3e-07, "MEAN_MOTION_DDOT": 0}, "tle": {"line1": "1 66647U 25273A   25358.23510996  .00000043  00000+0  24007-3 0  9998", "line2": "2 66647  82.4994 279.3113 0007599 259.1144 100.9080 12.41952208  3565"}}, "geometry": {"type": "Point", "coordinates": [-88.60298594498877, -45.00314977639931]}}, {"type": "Feature", "properties": {"norad_id": 66648, "name": "COSMOS 2598 (RODNIK-S 23)", "group": "last-30-days", "lat": 45.13991871770943, "lon": -73.44288722799227, "alt_km": 1495.0583086205452, "timestamp": "2025-12-24T18:55:54.774905+00:00", "meta": {"OBJECT_NAME": "COSMOS 2598 (RODNIK-S 23)", "OBJECT_ID": "2025-273B", "EPOCH": "2025-12-24T07:05:54.545280", "MEAN_MOTION": 12.43233571, "ECCENTRICITY": 0.00081767, "INCLINATION": 82.5032, "RA_OF_ASC_NODE": 279.2606, "ARG_OF_PERICENTER": 209.2935, "MEAN_ANOMALY": 150.7688, "EPHEMERIS_TYPE": 0, "CLASSIFICATION_TYPE": "U", "NORAD_CAT_ID": 66648, "ELEMENT_SET_NO": 999, "REV_AT_EPOCH": 357, "BSTAR": 0.00010362632, "MEAN_MOTION_DOT": 2.4e-07, "MEAN_MOTION_DDOT": 0}, "tle": {"line1": "1 66648U 25273B   25358.29577020  .00000024  00000+0  10363-3 0  9995", "line2": "2 66648  82.5032 279.2606 0008176 209.2935 150.7688 12.43233571  3577"}}, "geometry": {"type": "Point", "coordinates": [-73.44288722799227, 45.13991871770943]}}, {"type": "Feature", "properties": {"norad_id": 66649, "name": "COSMOS 2599 (RODNIK-S 24)", "group": "last-30-days", "lat": -78.46256628542655, "lon": 139.15548126727066, "alt_km": 1504.2539901611926, "timestamp": "2025-12-24T18:55:54.774915+00:00", "meta": {"OBJECT_NAME": "COSMOS 2599 (RODNIK-S 24)", "OBJECT_ID": "2025-273C", "EPOCH": "2025-12-24T05:55:14.930112", "MEAN_MOTION": 12.41152201, "ECCENTRICITY": 0.0006335, "INCLINATION": 82.5051, "RA_OF_ASC_NODE": 279.3379, "ARG_OF_PERICENTER": 247.2408, "MEAN_ANOMALY": 112.8002, "EPHEMERIS_TYPE": 0, "CLASSIFICATION_TYPE": "U", "NORAD_CAT_ID": 66649, "ELEMENT_SET_NO": 999, "REV_AT_EPOCH": 356, "BSTAR": 0.00046817373, "MEAN_MOTION_DOT": 7.3e-07, "MEAN_MOTION_DDOT": 0}, "tle": {"line1": "1 66649U 25273C   25358.24670058  .00000073  00000+0  46817-3 0  9993", "line2": "2 66649  82.5051 279.3379 0006335 247.2408 112.8002 12.41152201  3565"}}, "geometry": {"type": "Point", "coordinates": [139.15548126727066, -78.46256628542655]}}, {"type": "Feature", "properties": {"norad_id": 66650, "name": "BEE-1000", "group": "last-30-days", "lat": 23.604192166765312, "lon": 109.16349441995845, "alt_km": 587.3467653589969, "timestamp": "2025-12-24T18:55:54.774926+00:00", "meta": {"OBJECT_NAME": "BEE-1000", "OBJECT_ID": "2025-274A", "EPOCH": "2025-12-24T06:57:52.368480", "MEAN_MOTION": 14.91698842, "ECCENTRICITY": 0.00110377, "INCLINATION": 97.7405, "RA_OF_ASC_NODE": 285.2665, "ARG_OF_PERICENTER": 208.9132, "MEAN_ANOMALY": 151.1477, "EPHEMERIS_TYPE": 0, "CLASSIFICATION_TYPE": "U", "NORAD_CAT_ID": 66650, "ELEMENT_SET_NO": 999, "REV_AT_EPOCH": 412, "BSTAR": 0.00017639171, "MEAN_MOTION_DOT": 1.72e-05, "MEAN_MOTION_DDOT": 0}, "tle": {"line1": "1 66650U 25274A   25358.29018945  .00001720  00000+0  17639-3 0  9992", "line2": "2 66650  97.7405 285.2665 0011037 208.9132 151.1477 14.91698842  4123"}}, "geometry": {"type": "Point", "coordinates": [109.16349441995845, 23.604192166765312]}}, {"type": "Feature", "properties": {"norad_id": 66651, "name": "2025-274B", "group": "last-30-days", "lat": 11.856250372689791, "lon": 107.39558862617432, "alt_km": 587.2050410600705, "timestamp": "2025-12-24T18:55:54.774938+00:00", "meta": {"OBJECT_NAME": "2025-274B", "OBJECT_ID": "2025-274B", "EPOCH": "2025-12-24T06:54:47.078496", "MEAN_MOTION": 14.91878349, "ECCENTRICITY": 0.00112489, "INCLINATION": 97.7402, "RA_OF_ASC_NODE": 285.2676, "ARG_OF_PERICENTER": 206.9897, "MEAN_ANOMALY": 153.0738, "EPHEMERIS_TYPE": 0, "CLASSIFICATION_TYPE": "U", "NORAD_CAT_ID": 66651, "ELEMENT_SET_NO": 999, "REV_AT_EPOCH": 412, "BSTAR": 0.00045801136, "MEAN_MOTION_DOT": 4.579e-05, "MEAN_MOTION_DDOT": 0}, "tle": {"line1": "1 66651U 25274B   25358.28804489  .00004579  00000+0  45801-3 0  9995", "line2": "2 66651  97.7402 285.2676 0011248 206.9897 153.0738 14.91878349  4126"}}, "geometry": {"type": "Point", "coordinates": [107.39558862617432, 11.856250372689791]}}, {"type": "Feature", "properties": {"norad_id": 66652, "name": "2025-274C", "group": "last-30-days", "lat": 0.16172606192990355, "lon": 105.78786791703506, "alt_km": 588.515121177893, "timestamp": "2025-12-24T18:55:54.774948+00:00", "meta": {"OBJECT_NAME": "2025-274C", "OBJECT_ID": "2025-274C", "EPOCH": "2025-12-23T14:45:53.477856", "MEAN_MOTION": 14.91960147, "ECCENTRICITY": 0.00107697, "INCLINATION": 97.7406, "RA_OF_ASC_NODE": 284.6132, "ARG_OF_PERICENTER": 216.5181, "MEAN_ANOMALY": 143.5304, "EPHEMERIS_TYPE": 0, "CLASSIFICATION_TYPE": "U", "NORAD_CAT_ID": 66652, "ELEMENT_SET_NO": 999, "REV_AT_EPOCH": 402, "BSTAR": 0.00034346641, "MEAN_MOTION_DOT": 3.426e-05, "MEAN_MOTION_DDOT": 0}, "tle": {"line1": "1 66652U 25274C   25357.61520229  .00003426  00000+0  34347-3 0  9992", "line2": "2 66652  97.7406 284.6132 0010769 216.5181 143.5304 14.91960147  4021"}}, "geometry": {"type": "Point", "coordinates": [105.78786791703506, 0.16172606192990355]}}, {"type": "Feature", "properties": {"norad_id": 66653, "name": "2025-274D", "group": "last-30-days", "lat": -0.2184806255318793, "lon": 105.73588549625562, "alt_km": 587.6926575693133, "timestamp": "2025-12-24T18:55:54.774958+00:00", "meta": {"OBJECT_NAME": "2025-274D", "OBJECT_ID": "2025-274D", "EPOCH": "2025-12-24T05:14:58.697952", "MEAN_MOTION": 14.91957808, "ECCENTRICITY": 0.00117786, "INCLINATION": 97.7405, "RA_OF_ASC_NODE": 285.2057, "ARG_OF_PERICENTER": 210.7625, "MEAN_ANOMALY": 149.2905, "EPHEMERIS_TYPE": 0, "CLASSIFICATION_TYPE": "U", "NORAD_CAT_ID": 66653, "ELEMENT_SET_NO": 999, "REV_AT_EPOCH": 411, "BSTAR": 0.00028961482, "MEAN_MOTION_DOT": 2.88e-05, "MEAN_MOTION_DDOT": 0}, "tle": {"line1": "1 66653U 25274D   25358.21873493  .00002880  00000+0  28961-3 0  9992", "line2": "2 66653  97.7405 285.2057 0011778 210.7625 149.2905 14.91957808  4114"}}, "geometry": {"type": "Point", "coordinates": [105.73588549625562, -0.2184806255318793]}}, {"type": "Feature", "properties": {"norad_id": 66654, "name": "JACK E", "group": "last-30-days", "lat": -17.587467352751567, "lon": 103.30272681939618, "alt_km": 587.9362002633943, "timestamp": "2025-12-24T18:55:54.774970+00:00", "meta": {"OBJECT_NAME": "JACK E", "OBJECT_ID": "2025-274E", "EPOCH": "2025-12-23T14:41:17.496384", "MEAN_MOTION": 14.92137123, "ECCENTRICITY": 0.00122814, "INCLINATION": 97.7407, "RA_OF_ASC_NODE": 284.6177, "ARG_OF_PERICENTER": 214.8879, "MEAN_ANOMALY": 145.1536, "EPHEMERIS_TYPE": 0, "CLASSIFICATION_TYPE": "U", "NORAD_CAT_ID": 66654, "ELEMENT_SET_NO": 999, "REV_AT_EPOCH": 402, "BSTAR": 0.00030019774, "MEAN_MOTION_DOT": 3.001e-05, "MEAN_MOTION_DDOT": 0}, "tle": {"line1": "1 66654U 25274E   25357.61200806  .00003001  00000+0  30020-3 0  9993", "line2": "2 66654  97.7407 284.6177 0012281 214.8879 145.1536 14.92137123  4025"}}, "geometry": {"type": "Point", "coordinates": [103.30272681939618, -17.587467352751567]}}, {"type": "Feature", "properties": {"norad_id": 66655, "name": "2025-274F", "group": "last-30-days", "lat": 19.492231806263923, "lon": 108.50715534212416, "alt_km": 597.4942810200919, "timestamp": "2025-12-24T18:55:54.774981+00:00", "meta": {"OBJECT_NAME": "2025-274F", "OBJECT_ID": "2025-274F", "EPOCH": "2025-12-24T06:56:33.276192", "MEAN_MOTION": 14.911933, "ECCENTRICITY": 0.00044335, "INCLINATION": 97.7344, "RA_OF_ASC_NODE": 285.2601, "ARG_OF_PERICENTER": 344.9357, "MEAN_ANOMALY": 15.1729, "EPHEMERIS_TYPE": 0, "CLASSIFICATION_TYPE": "U", "NORAD_CAT_ID": 66655, "ELEMENT_SET_NO": 999, "REV_AT_EPOCH": 412, "BSTAR": 1.9529297e-05, "MEAN_MOTION_DOT": 1.39e-06, "MEAN_MOTION_DDOT": 0}, "tle": {"line1": "1 66655U 25274F   25358.28927403  .00000139  00000+0  19529-4 0  9998", "line2": "2 66655  97.7344 285.2601 0004433 344.9357  15.1729 14.91193300  4120"}}, "geometry": {"type": "Point", "coordinates": [108.50715534212416, 19.492231806263923]}}]}